{
    "type": "FeatureCollection",
    "features": [
{"type":"Feature","properties":{"hash":"b39c8ee5418aca76","number":"36","street":"SKYLINE DRIVE","unit":"","city":"NANTUCKET","district":"NANTUCKET","region":"MA","postcode":"02554","id":""},"geometry":{"type":"Point","coordinates":[-70.076105,41.2560663]}},
{"type":"Feature","properties":{"hash":"e1b37641eaf00c51","number":"26","street":"AHAB DRIVE","unit":"","city":"NANTUCKET","district":"NANTUCKET","region":"MA","postcode":"02554","id":""},"geometry":{"type":"Point","coordinates":[-70.1378244,41.2568281]}},
{"type":"Feature","properties":{"hash":"20dc421109bbdc33","number":"5","street":"ISHMAEL ROAD","unit":"","city":"NANTUCKET","district":"NANTUCKET","region":"MA","postcode":"02554","id":""},"geometry":{"type":"Point","coordinates":[-70.1407288,41.2568715]}},
{"type":"Feature","properties":{"hash":"9d956e7e0dbb4445","number":"20","street":"TAUTEMO WAY","unit":"","city":"NANTUCKET","district":"NANTUCKET","region":"MA","postcode":"02554","id":""},"geometry":{"type":"Point","coordinates":[-70.1498692,41.2570002]}},
{"type":"Feature","properties":{"hash":"a204b0914c292534","number":"15A","street":"FIELD AVENUE","unit":"","city":"NANTUCKET","district":"NANTUCKET","region":"MA","postcode":"02554","id":""},"geometry":{"type":"Point","coordinates":[-70.1000088,41.2490739]}},
{"type":"Feature","properties":{"hash":"3929f9566a28e411","number":"1A","street":"MONOHANSETT ROAD","unit":"","city":"NANTUCKET","district":"NANTUCKET","region":"MA","postcode":"02554","id":""},"geometry":{"type":"Point","coordinates":[-70.0758433,41.2487729]}},
{"type":"Feature","properties":{"hash":"e987d11c543e6007","number":"143A","street":"SURFSIDE ROAD","unit":"","city":"NANTUCKET","district":"NANTUCKET","region":"MA","postcode":"02554","id":""},"geometry":{"type":"Point","coordinates":[-70.0946368,41.249028]}},
{"type":"Feature","properties":{"hash":"5ce373fe9a66ec60","number":"142","street":"SURFSIDE ROAD","unit":"","city":"NANTUCKET","district":"NANTUCKET","region":"MA","postcode":"02554","id":""},"geometry":{"type":"Point","coordinates":[-70.0931518,41.248993]}},
{"type":"Feature","properties":{"hash":"1afea9f03aa4affa","number":"66F","street":"POCHICK AVENUE","unit":"","city":"NANTUCKET","district":"NANTUCKET","region":"MA","postcode":"02554","id":""},"geometry":{"type":"Point","coordinates":[-70.0805702,41.2488582]}},
{"type":"Feature","properties":{"hash":"e8f6451eb7bb4243","number":"3","street":"POCHICK AVENUE","unit":"","city":"NANTUCKET","district":"NANTUCKET","region":"MA","postcode":"02554","id":""},"geometry":{"type":"Point","coordinates":[-70.09712,41.2490685]}},
{"type":"Feature","properties":{"hash":"67fdc9a65b38e588","number":"13","street":"NAUSHON WAY","unit":"","city":"NANTUCKET","district":"NANTUCKET","region":"MA","postcode":"02554","id":""},"geometry":{"type":"Point","coordinates":[-70.0921843,41.2490206]}},
{"type":"Feature","properties":{"hash":"ac2ed76d50c6abd5","number":"18","street":"POND VIEW DRIVE","unit":"","city":"NANTUCKET","district":"NANTUCKET","region":"MA","postcode":"02554","id":""},"geometry":{"type":"Point","coordinates":[-70.1066814,41.2492067]}},
{"type":"Feature","properties":{"hash":"3341fcffaaabec90","number":"24","street":"WALBANG AVENUE","unit":"","city":"NANTUCKET","district":"NANTUCKET","region":"MA","postcode":"02554","id":""},"geometry":{"type":"Point","coordinates":[-70.1421172,41.2496401]}},
{"type":"Feature","properties":{"hash":"b0c827c1f3e34de3","number":"15","street":"FOLGER AVENUE","unit":"","city":"NANTUCKET","district":"NANTUCKET","region":"MA","postcode":"02554","id":""},"geometry":{"type":"Point","coordinates":[-70.101196,41.2491586]}},
{"type":"Feature","properties":{"hash":"6da0b6b85a6133b0","number":"45","street":"BOULEVARDE","unit":"","city":"NANTUCKET","district":"NANTUCKET","region":"MA","postcode":"02554","id":""},"geometry":{"type":"Point","coordinates":[-70.0852955,41.2490855]}},
{"type":"Feature","properties":{"hash":"bd77f27b1764508c","number":"16","street":"FIELD AVENUE","unit":"","city":"NANTUCKET","district":"NANTUCKET","region":"MA","postcode":"02554","id":""},"geometry":{"type":"Point","coordinates":[-70.0990867,41.2492809]}},
{"type":"Feature","properties":{"hash":"46054d1e4ee59dda","number":"72","street":"POCHICK AVENUE","unit":"","city":"NANTUCKET","district":"NANTUCKET","region":"MA","postcode":"02554","id":""},"geometry":{"type":"Point","coordinates":[-70.078286,41.2490229]}},
{"type":"Feature","properties":{"hash":"ec4bb3f856f48d7c","number":"64","street":"POCHICK AVENUE","unit":"","city":"NANTUCKET","district":"NANTUCKET","region":"MA","postcode":"02554","id":""},"geometry":{"type":"Point","coordinates":[-70.0809576,41.2490605]}},
{"type":"Feature","properties":{"hash":"8264bb4c907b40d2","number":"2","street":"TRIPP DRIVE","unit":"","city":"NANTUCKET","district":"NANTUCKET","region":"MA","postcode":"02554","id":""},"geometry":{"type":"Point","coordinates":[-70.1030134,41.2493446]}}
    
]}